ONEWEB-0687             
1 61595U 24188B   24347.89667046  .00003039  00000+0  37145-3 0  9992
2 61595  86.5766 147.4661 0005754  52.0309 308.1433 14.82939874 10924
ONEWEB-0688             
1 61596U 24188C   24347.69755704 -.00000514  00000+0 -66764-4 0  9997
2 61596  86.5785 147.5667 0005271  54.5501 305.6213 14.82942664 10893
ONEWEB-0689             
1 61597U 24188D   24347.69783519  .00002808  00000+0  34311-3 0  9991
2 61597  86.5706 147.5303 0003548  73.1836 286.9776 14.82931031 10898
ONEWEB-0692             
1 61600U 24188G   24347.70087070  .00003055  00000+0  37357-3 0  9995
2 61600  86.5727 147.5514 0004384  76.7738 283.3974 14.82922667 10895
ONEWEB-0693             
1 61601U 24188H   24347.90036472  .00002083  00000+0  25367-3 0  9996
2 61601  86.5698 147.4355 0003944  68.5956 291.5687 14.82935457 10924
ONEWEB-0695             
1 61602U 24188J   24347.70047553 -.00004346  00000+0 -54010-3 0  9990
2 61602  86.5750 147.5615 0003712  69.4720 290.6901 14.82938938 10898
